CCSDS_OMM_VERS = 2.0
CREATION_DATE  = 
ORIGINATOR     = 

OBJECT_NAME    = STARLINK-37220
OBJECT_ID      = 2026-063U
CENTER_NAME    = EARTH
REF_FRAME      = TEME
TIME_SYSTEM    = UTC
MEAN_ELEMENT_THEORY = SGP/SGP4

EPOCH          = 2026-04-02T18:00:02.000160
MEAN_MOTION    = 16.00790582
ECCENTRICITY   = .00020912
INCLINATION    = 97.2815
RA_OF_ASC_NODE = 233.5577
ARG_OF_PERICENTER = 66.0397
MEAN_ANOMALY   = 120.4043

EPHEMERIS_TYPE = 0
CLASSIFICATION_TYPE = U
NORAD_CAT_ID   = 68398
ELEMENT_SET_NO = 999
REV_AT_EPOCH   = 232
BSTAR          = -.43588938E-2
MEAN_MOTION_DOT = -.228389E-1
MEAN_MOTION_DDOT = .15546241E-2

CCSDS_OMM_VERS = 2.0
CREATION_DATE  = 
ORIGINATOR     = 

OBJECT_NAME    = STARLINK-37187
OBJECT_ID      = 2026-063V
CENTER_NAME    = EARTH
REF_FRAME      = TEME
TIME_SYSTEM    = UTC
MEAN_ELEMENT_THEORY = SGP/SGP4

EPOCH          = 2026-04-02T18:00:02.000160
MEAN_MOTION    = 16.00392506
ECCENTRICITY   = .00016257
INCLINATION    = 97.2813
RA_OF_ASC_NODE = 233.5566
ARG_OF_PERICENTER = 66.9644
MEAN_ANOMALY   = 117.1108

EPHEMERIS_TYPE = 0
CLASSIFICATION_TYPE = U
NORAD_CAT_ID   = 68399
ELEMENT_SET_NO = 999
REV_AT_EPOCH   = 232
BSTAR          = -.35747265E-2
MEAN_MOTION_DOT = -.1834573E-1
MEAN_MOTION_DDOT = .10160877E-2

CCSDS_OMM_VERS = 2.0
CREATION_DATE  = 
ORIGINATOR     = 

OBJECT_NAME    = STARLINK-36235
OBJECT_ID      = 2026-063W
CENTER_NAME    = EARTH
REF_FRAME      = TEME
TIME_SYSTEM    = UTC
MEAN_ELEMENT_THEORY = SGP/SGP4

EPOCH          = 2026-04-02T18:00:02.000160
MEAN_MOTION    = 16.00671292
ECCENTRICITY   = .00015361
INCLINATION    = 97.2810
RA_OF_ASC_NODE = 233.5586
ARG_OF_PERICENTER = 80.5141
MEAN_ANOMALY   = 108.5827

EPHEMERIS_TYPE = 0
CLASSIFICATION_TYPE = U
NORAD_CAT_ID   = 68400
ELEMENT_SET_NO = 999
REV_AT_EPOCH   = 232
BSTAR          = -.35610636E-2
MEAN_MOTION_DOT = -.1856481E-1
MEAN_MOTION_DDOT = .1042517E-2

CCSDS_OMM_VERS = 2.0
CREATION_DATE  = 
ORIGINATOR     = 

OBJECT_NAME    = STARLINK-37175
OBJECT_ID      = 2026-063X
CENTER_NAME    = EARTH
REF_FRAME      = TEME
TIME_SYSTEM    = UTC
MEAN_ELEMENT_THEORY = SGP/SGP4

EPOCH          = 2026-04-02T18:00:02.000160
MEAN_MOTION    = 16.00803270
ECCENTRICITY   = .00016053
INCLINATION    = 97.2812
RA_OF_ASC_NODE = 233.5601
ARG_OF_PERICENTER = 70.4024
MEAN_ANOMALY   = 121.2648

EPHEMERIS_TYPE = 0
CLASSIFICATION_TYPE = U
NORAD_CAT_ID   = 68401
ELEMENT_SET_NO = 999
REV_AT_EPOCH   = 232
BSTAR          = -.35380228E-2
MEAN_MOTION_DOT = -.1858405E-1
MEAN_MOTION_DDOT = .10461905E-2

CCSDS_OMM_VERS = 2.0
CREATION_DATE  = 
ORIGINATOR     = 

OBJECT_NAME    = STARLINK-36360
OBJECT_ID      = 2026-063Y
CENTER_NAME    = EARTH
REF_FRAME      = TEME
TIME_SYSTEM    = UTC
MEAN_ELEMENT_THEORY = SGP/SGP4

EPOCH          = 2026-04-02T18:00:02.000160
MEAN_MOTION    = 16.00951512
ECCENTRICITY   = .00014945
INCLINATION    = 97.2811
RA_OF_ASC_NODE = 233.5611
ARG_OF_PERICENTER = 76.7215
MEAN_ANOMALY   = 117.4227

EPHEMERIS_TYPE = 0
CLASSIFICATION_TYPE = U
NORAD_CAT_ID   = 68402
ELEMENT_SET_NO = 999
REV_AT_EPOCH   = 232
BSTAR          = -.35608966E-2
MEAN_MOTION_DOT = -.1885974E-1
MEAN_MOTION_DDOT = .10776431E-2

CCSDS_OMM_VERS = 2.0
CREATION_DATE  = 
ORIGINATOR     = 

OBJECT_NAME    = STARLINK-37218
OBJECT_ID      = 2026-063Z
CENTER_NAME    = EARTH
REF_FRAME      = TEME
TIME_SYSTEM    = UTC
MEAN_ELEMENT_THEORY = SGP/SGP4

EPOCH          = 2026-04-02T18:00:02.000160
MEAN_MOTION    = 16.01196804
ECCENTRICITY   = .00016164
INCLINATION    = 97.2814
RA_OF_ASC_NODE = 233.5637
ARG_OF_PERICENTER = 71.1878
MEAN_ANOMALY   = 127.3881

EPHEMERIS_TYPE = 0
CLASSIFICATION_TYPE = U
NORAD_CAT_ID   = 68403
ELEMENT_SET_NO = 999
REV_AT_EPOCH   = 232
BSTAR          = -.34726075E-2
MEAN_MOTION_DOT = -.1865503E-1
MEAN_MOTION_DDOT = .10586923E-2

CCSDS_OMM_VERS = 2.0
CREATION_DATE  = 
ORIGINATOR     = 

OBJECT_NAME    = STARLINK-37188
OBJECT_ID      = 2026-063AA
CENTER_NAME    = EARTH
REF_FRAME      = TEME
TIME_SYSTEM    = UTC
MEAN_ELEMENT_THEORY = SGP/SGP4

EPOCH          = 2026-04-02T18:00:02.000160
MEAN_MOTION    = 16.01065014
ECCENTRICITY   = .00015997
INCLINATION    = 97.2811
RA_OF_ASC_NODE = 233.5623
ARG_OF_PERICENTER = 68.4936
MEAN_ANOMALY   = 127.6824

EPHEMERIS_TYPE = 0
CLASSIFICATION_TYPE = U
NORAD_CAT_ID   = 68404
ELEMENT_SET_NO = 999
REV_AT_EPOCH   = 232
BSTAR          = -.34951711E-2
MEAN_MOTION_DOT = -.1863513E-1
MEAN_MOTION_DDOT = .10549014E-2

CCSDS_OMM_VERS = 2.0
CREATION_DATE  = 
ORIGINATOR     = 

OBJECT_NAME    = SHIYAN-33
OBJECT_ID      = 2026-064A
CENTER_NAME    = EARTH
REF_FRAME      = TEME
TIME_SYSTEM    = UTC
MEAN_ELEMENT_THEORY = SGP/SGP4

EPOCH          = 2026-04-02T22:03:07.509888
MEAN_MOTION    = 15.23201583
ECCENTRICITY   = .00135602
INCLINATION    = 97.4657
RA_OF_ASC_NODE = 168.8333
ARG_OF_PERICENTER = 204.9975
MEAN_ANOMALY   = 155.0606

EPHEMERIS_TYPE = 0
CLASSIFICATION_TYPE = U
NORAD_CAT_ID   = 68405
ELEMENT_SET_NO = 999
REV_AT_EPOCH   = 103
BSTAR          = .41512507E-3
MEAN_MOTION_DOT = .9777E-4
MEAN_MOTION_DDOT = 0

CCSDS_OMM_VERS = 2.0
CREATION_DATE  = 
ORIGINATOR     = 

OBJECT_NAME    = LPNTSAT-001 (IOD-1)
OBJECT_ID      = 2026-065A
CENTER_NAME    = EARTH
REF_FRAME      = TEME
TIME_SYSTEM    = UTC
MEAN_ELEMENT_THEORY = SGP/SGP4

EPOCH          = 2026-04-01T04:04:57.158400
MEAN_MOTION    = 15.18233471
ECCENTRICITY   = .0015408
INCLINATION    = 97.4137
RA_OF_ASC_NODE = 333.2788
ARG_OF_PERICENTER = 273.4606
MEAN_ANOMALY   = 86.4866

EPHEMERIS_TYPE = 0
CLASSIFICATION_TYPE = U
NORAD_CAT_ID   = 68408
ELEMENT_SET_NO = 999
REV_AT_EPOCH   = 57
BSTAR          = .23469E-3
MEAN_MOTION_DOT = .475E-4
MEAN_MOTION_DDOT = 0

CCSDS_OMM_VERS = 2.0
CREATION_DATE  = 
ORIGINATOR     = 

OBJECT_NAME    = LPNTSAT-002 (IOD-2)
OBJECT_ID      = 2026-065B
CENTER_NAME    = EARTH
REF_FRAME      = TEME
TIME_SYSTEM    = UTC
MEAN_ELEMENT_THEORY = SGP/SGP4

EPOCH          = 2026-04-02T10:08:21.772608
MEAN_MOTION    = 15.18229138
ECCENTRICITY   = .0012739
INCLINATION    = 97.4055
RA_OF_ASC_NODE = 334.5080
ARG_OF_PERICENTER = 262.3916
MEAN_ANOMALY   = 97.5871

EPHEMERIS_TYPE = 0
CLASSIFICATION_TYPE = U
NORAD_CAT_ID   = 68409
ELEMENT_SET_NO = 999
REV_AT_EPOCH   = 74
BSTAR          = .96696E-4
MEAN_MOTION_DOT = .1915E-4
MEAN_MOTION_DDOT = 0

CCSDS_OMM_VERS = 2.0
CREATION_DATE  = 
ORIGINATOR     = 

OBJECT_NAME    = ELECTRON R/B
OBJECT_ID      = 2026-065C
CENTER_NAME    = EARTH
REF_FRAME      = TEME
TIME_SYSTEM    = UTC
MEAN_ELEMENT_THEORY = SGP/SGP4

EPOCH          = 2026-03-29T17:50:42.810720
MEAN_MOTION    = 15.83047135
ECCENTRICITY   = .02280831
INCLINATION    = 97.3942
RA_OF_ASC_NODE = 331.0573
ARG_OF_PERICENTER = 205.9229
MEAN_ANOMALY   = 153.0475

EPHEMERIS_TYPE = 0
CLASSIFICATION_TYPE = U
NORAD_CAT_ID   = 68410
ELEMENT_SET_NO = 999
REV_AT_EPOCH   = 15
BSTAR          = .25022275E-3
MEAN_MOTION_DOT = .479178E-2
MEAN_MOTION_DDOT = .2264235E-5

CCSDS_OMM_VERS = 2.0
CREATION_DATE  = 
ORIGINATOR     = 

OBJECT_NAME    = ELECTRON KICK STAGE R/B
OBJECT_ID      = 2026-065D
CENTER_NAME    = EARTH
REF_FRAME      = TEME
TIME_SYSTEM    = UTC
MEAN_ELEMENT_THEORY = SGP/SGP4

EPOCH          = 2026-04-02T19:33:41.298912
MEAN_MOTION    = 16.17672663
ECCENTRICITY   = .0111071
INCLINATION    = 97.3673
RA_OF_ASC_NODE = 335.5305
ARG_OF_PERICENTER = 191.0630
MEAN_ANOMALY   = 168.8215

EPHEMERIS_TYPE = 0
CLASSIFICATION_TYPE = U
NORAD_CAT_ID   = 68411
ELEMENT_SET_NO = 999
REV_AT_EPOCH   = 86
BSTAR          = .19578E-3
MEAN_MOTION_DOT = .1483191E-1
MEAN_MOTION_DDOT = .23207E-5

